[{"OBJECT_NAME":"STARLINK-4318","OBJECT_ID":"2022-077AV","EPOCH":"2026-03-09T10:48:22.686048","MEAN_MOTION":15.0127407,"ECCENTRICITY":0.00012121,"INCLINATION":97.6032,"RA_OF_ASC_NODE":249.9879,"ARG_OF_PERICENTER":113.2283,"MEAN_ANOMALY":246.907,"EPHEMERIS_TYPE":0,"CLASSIFICATION_TYPE":"U","NORAD_CAT_ID":53086,"ELEMENT_SET_NO":999,"REV_AT_EPOCH":20088,"BSTAR":0.0001256365,"MEAN_MOTION_DOT":1.556e-5,"MEAN_MOTION_DDOT":0},{"OBJECT_NAME":"ELECTRON KICK STAGE R\/B","OBJECT_ID":"2022-079C","EPOCH":"2026-03-09T00:14:21.573024","MEAN_MOTION":14.9984674,"ECCENTRICITY":0.00071286,"INCLINATION":40.0139,"RA_OF_ASC_NODE":71.1393,"ARG_OF_PERICENTER":266.8926,"MEAN_ANOMALY":93.1051,"EPHEMERIS_TYPE":0,"CLASSIFICATION_TYPE":"U","NORAD_CAT_ID":53104,"ELEMENT_SET_NO":999,"REV_AT_EPOCH":10032,"BSTAR":0.00071833394,"MEAN_MOTION_DOT":8.922e-5,"MEAN_MOTION_DDOT":0}]
